[
  {
    "type": "geburtshaus",
    "short_name": "ghamb",
    "name": "Geburtshaus Ambra",
    "strasse": "Unterdorfstrasse 25",
    "plz": 4443,
    "ort": "Wittinsburg",
    "url": "http://www.gebaeren.ch"
  },
  {
    "type": "geburtshaus",
    "short_name": "ghbs",
    "name": "Geburtshaus Basel GmbH Basel",
    "strasse": "Schweizergasse 8",
    "plz": 4054,
    "ort": "Basel",
    "url": "http://www.geburtshausbasel.ch"
  },
  {
    "type": "geburtshaus",
    "short_name": "ghdel",
    "name": "Geburtshaus Delphys",
    "strasse": "Badenerstrasse 177",
    "plz": 8003,
    "ort": "Zürich",
    "url": "http://www.delphys.ch"
  },
  {
    "type": "geburtshaus",
    "short_name": "ghdl",
    "name": "Maison de Naissance Dix Lunes",
    "strasse": "Presinge 45",
    "plz": 1241,
    "ort": "Puplinge",
    "url": "http://www.maisondenaissancelaroseraie.ch"
  },
  {
    "type": "geburtshaus",
    "short_name": "ghham",
    "name": "Geburtshaus Hamburg",
    "strasse": "Am Felde 2",
    "plz": 22765,
    "ort": "Hamburg",
    "url": "http://www.geburtshaus-hamburg.de/"
  },
  {
    "type": "geburtshaus",
    "short_name": "ghita",
    "name": "Geburtshaus Ita Wegman",
    "strasse": "Pfeffingerweg 1",
    "plz": 4144,
    "ort": "Arlesheim",
    "url": "https://www.maternitealpine.ch"
  },
  {
    "type": "geburtshaus",
    "short_name": "ghlc",
    "name": "Maison de naissance Les Cigognes",
    "strasse": "Route Principale 21",
    "plz": 2824,
    "ort": "Vicques",
    "url": "http://www.les-cigognes.ch"
  },
  {
    "type": "geburtshaus",
    "short_name": "ghledi",
    "name": "Casa Maternità e Nascita Lediecilune",
    "strasse": "Via Guglielmo Canevascini 4",
    "plz": 6900,
    "ort": "Lugano",
    "url": "http://www.lediecilune.ch"
  },
  {
    "type": "geburtshaus",
    "short_name": "ghlgr",
    "name": "Maison de naissance La Grange Rouge",
    "strasse": "Rue du Village 5",
    "plz": 1274,
    "ort": "Grens",
    "url": "http://www.lagrangerouge.ch"
  },
  {
    "type": "geburtshaus",
    "short_name": "ghmaalp",
    "name": "Geburtshaus Maternité Alpine",
    "strasse": "Eggetlistrasse 5a",
    "plz": 3770,
    "ort": "Zweisimmen",
    "url": "https://www.maternitealpine.ch"
  },
  {
    "type": "geburtshaus",
    "short_name": "ghna",
    "name": "Maison de naissance Aquila",
    "strasse": "Ch. du Grand Chêne",
    "plz": 1860,
    "ort": "Aigle",
    "url": "http://www.aquila-naissance.ch"
  },
  {
    "type": "geburtshaus",
    "short_name": "ghng",
    "name": "Maison de naissance Gaïa",
    "strasse": "Av. Grand Champsec 80",
    "plz": 1950,
    "ort": "Sion",
    "url": "http://www.gaïa.ch"
  },
  {
    "type": "geburtshaus",
    "short_name": "ghnl",
    "name": "Maison de naissance Lunaissance",
    "strasse": "ch de la Lune 3",
    "plz": 1132,
    "ort": "Lullly s/ Morges",
    "url": "http://www.lunaissance.ch/"
  },
  {
    "type": "geburtshaus",
    "short_name": "ghnt",
    "name": "Maison de naissance Tilia",
    "strasse": "Valangines 9",
    "plz": 2000,
    "ort": "Neuchâtel",
    "url": "http://www.tilia-naissance.ch"
  },
  {
    "type": "geburtshaus",
    "short_name": "ghnz",
    "name": "Maison de naissance Zoé",
    "strasse": "Poyet 9",
    "plz": 1510,
    "ort": "Moudon",
    "url": "http://www.naissance-zoe.ch"
  },
  {
    "type": "geburtshaus",
    "short_name": "ghph",
    "name": "Philina GmbH",
    "strasse": "Hinderbergstrasse 14",
    "plz": 9473,
    "ort": "Gams",
    "url": "https://www.philina.ch/"
  },
  {
    "type": "geburtshaus",
    "short_name": "ghpp",
    "name": "Maison de naissance Le Petit Prince",
    "strasse": "Route du Petit Moncor 1d",
    "plz": 1752,
    "ort": "Villars-sur-Glâne",
    "url": "http://www.le-petit-prince.ch"
  },
  {
    "type": "geburtshaus",
    "short_name": "ghsh",
    "name": "Geburtshaus Schaffhausen",
    "strasse": "Beckengässchen 11",
    "plz": 8200,
    "ort": "Schaffhausen",
    "url": "http://www.geburtshaus-sh.ch"
  },
  {
    "type": "geburtshaus",
    "short_name": "ghstan",
    "name": "Geburtshaus & HebammenpraxisGeburtshaus Stans GmbH",
    "strasse": "Rosenweg 3",
    "plz": 6371,
    "ort": "Stans",
    "url": "http://www.geburtshaus-stans.ch"
  },
  {
    "type": "geburtshaus",
    "short_name": "ghsto",
    "name": "Geburtshus Storchenäscht",
    "strasse": "Hendschikerstrasse 12",
    "plz": 5504,
    "ort": "Othmarsingen",
    "url": "http://www.storchenaescht.ch"
  },
  {
    "type": "geburtshaus",
    "short_name": "ghta",
    "name": "Geburtshaus Terra Alta",
    "strasse": "Schellenrain 20",
    "plz": 6208,
    "ort": "Oberkirch",
    "url": "http://www.geburtshaus-terra-alta.ch"
  },
  {
    "type": "geburtshaus",
    "short_name": "ghtagm",
    "name": "Geburtshaus Tagmond",
    "strasse": "Hauptstrasse 26",
    "plz": 4133,
    "ort": "Pratteln",
    "url": "http://www.tagmond.ch"
  },
  {
    "type": "geburtshaus",
    "short_name": "ghzob",
    "name": "Geburtshaus Zürcher Oberland",
    "strasse": "Schürlistrasse 3",
    "plz": 8344,
    "ort": "Bäretswil",
    "url": "http://www.geburtshaus-zho.ch"
  },
  {
    "type": "spital",
    "short_name": "asana",
    "name": "Asana Spital Leuggern",
    "strasse": "Schulweg 3",
    "plz": 5316,
    "ort": "Leuggern",
    "url": "http://www.spitalleuggern.ch/"
  },
  {
    "type": "spital",
    "short_name": "bethazh",
    "name": "Klinik Bethanien",
    "strasse": "Toblerstrasse 51",
    "plz": 8044,
    "ort": "Zürich",
    "url": "https://www.klinikbethanien.ch"
  },
  {
    "type": "spital",
    "short_name": "bethbs",
    "name": "Bethesda Spital",
    "strasse": "Gellertstrasse 144",
    "plz": 4052,
    "ort": "Basel",
    "url": "https://bethesda-spital.ch"
  },
  {
    "type": "spital",
    "short_name": "glzf",
    "name": "Gesundheitszentrum Fricktal (GZF)",
    "strasse": "Spitalstrasse 10",
    "plz": 5080,
    "ort": "Laufenburg",
    "url": "https://www.gzf.ch"
  },
  {
    "type": "spital",
    "short_name": "hirslzh",
    "name": "Hirslanden",
    "strasse": "Witellikerstrasse 40",
    "plz": 8032,
    "ort": "Zürich",
    "url": "http://hirslanden.ch"
  },
  {
    "type": "spital",
    "short_name": "insbe",
    "name": "Inselspital",
    "strasse": "Freiburgstrasse 8",
    "plz": 3010,
    "ort": "Bern",
    "url": "https://www.insel.ch"
  },
  {
    "type": "spital",
    "short_name": "klaug",
    "name": "Zentralklinikum Augsburg",
    "strasse": "Stenglinstraße 2",
    "plz": 86156,
    "ort": "Augsburg",
    "url": "https://www.klinikum-augsburg.de/"
  },
  {
    "type": "spital",
    "short_name": "ksaa",
    "name": "Kantonsspital Aarau (KSA)",
    "strasse": "Tellstrasse 25",
    "plz": 5001,
    "ort": "Aarau",
    "url": "https://www.ksa.ch"
  },
  {
    "type": "spital",
    "short_name": "ksba",
    "name": "Kantonsspital Baden",
    "strasse": "Im Ergel 1",
    "plz": 5404,
    "ort": "Baden",
    "url": "http://www.kantonsspitalbaden.ch/"
  },
  {
    "type": "spital",
    "short_name": "ksbl",
    "name": "Kantonsspital Baselland",
    "strasse": "Rheinstrasse 26",
    "plz": 4410,
    "ort": "Liestal",
    "url": "https://www.ksbl.ch"
  },
  {
    "type": "spital",
    "short_name": "ksfr",
    "name": "Kantonsspital Frauenfeld (STGAG)",
    "strasse": "Pfaffenholzstrasse 4",
    "plz": 8501,
    "ort": "Frauenfeld",
    "url": "http://www.stgag.ch/"
  },
  {
    "type": "spital",
    "short_name": "ksfr",
    "name": "Kantonsspital Freiburg",
    "strasse": "Chemin des Pensionnats 2",
    "plz": 1708,
    "ort": "Fribourg",
    "url": "http://www.fr.ch/"
  },
  {
    "type": "spital",
    "short_name": "ksgl",
    "name": "Kantonsspital Glarus",
    "strasse": "Burgstrasse 99",
    "plz": 8750,
    "ort": "Glarus",
    "url": "http://www.ksgl.ch"
  },
  {
    "type": "spital",
    "short_name": "ksgr",
    "name": "Kantonsspital Graubünden",
    "strasse": "Loestrasse 170",
    "plz": 7000,
    "ort": "Chur",
    "url": "https://www.ksgr.ch/"
  },
  {
    "type": "spital",
    "short_name": "ksmu",
    "name": "Kantonsspital Münsterlingen (STGAG)",
    "strasse": "Spitalcampus 1",
    "plz": 8596,
    "ort": "Münsterlingen",
    "url": "http://www.stgag.ch"
  },
  {
    "type": "spital",
    "short_name": "ksnw",
    "name": "Kantonsspital Nidwalden",
    "strasse": "Ennetmooserstrasse 19",
    "plz": 6370,
    "ort": "Stans",
    "url": "http://www.ksnw.ch"
  },
  {
    "type": "spital",
    "short_name": "ksol",
    "name": "Kantonsspital Olten (soH)",
    "strasse": "Baslerstrasse 150",
    "plz": 4600,
    "ort": "Olten",
    "url": "https://www.so-h.ch/kantonsspital-olten"
  },
  {
    "type": "spital",
    "short_name": "ksow",
    "name": "Kantonsspital Obwalden",
    "strasse": "Brünigstrasse 181",
    "plz": 6060,
    "ort": "Sarnen",
    "url": "https://www.ksow.ch"
  },
  {
    "type": "spital",
    "short_name": "kssg",
    "name": "Kantonsspital St. Gallen",
    "strasse": "Rorschacher Str. 95",
    "plz": 9007,
    "ort": "St. Gallen",
    "url": "https://www.kssg.ch/"
  },
  {
    "type": "spital",
    "short_name": "ksur",
    "name": "Kantonsspital Uri",
    "strasse": "Spitalstrasse 1",
    "plz": 6460,
    "ort": "Altdorf",
    "url": "https://www.ksuri.ch"
  },
  {
    "type": "spital",
    "short_name": "ksw",
    "name": "Kantonsspital Winterthur (KSW)",
    "strasse": "Brauerstrasse 15",
    "plz": 8401,
    "ort": "Winterthur",
    "url": "https://www.ksw.ch"
  },
  {
    "type": "spital",
    "short_name": "kszg",
    "name": "Kantonsspital Zug (ZGKS)|",
    "strasse": "Landhausstrasse 11",
    "plz": 6340,
    "ort": "Baar",
    "url": "https://www.zgks.ch"
  },
  {
    "type": "spital",
    "short_name": "luks",
    "name": "Kantonsspital Luzern (LUKS)",
    "strasse": "Spitalstrasse 34",
    "plz": 6000,
    "ort": "Luzern",
    "url": "https://www.luks.ch"
  },
  {
    "type": "spital",
    "short_name": "paracri",
    "name": "Paracelsus Spital",
    "strasse": "Bergstrasse 16",
    "plz": 8805,
    "ort": "Richterswil",
    "url": "https://paracelsus-spital.com"
  },
  {
    "type": "spital",
    "short_name": "seeho",
    "name": "See-Spital",
    "strasse": "Asylstrasse 19",
    "plz": 8810,
    "ort": "Horgen",
    "url": "http://www.see-spital.ch"
  },
  {
    "type": "spital",
    "short_name": "spibiel",
    "name": "Spitalzentrum Biel",
    "strasse": "Vogelsang 84",
    "plz": 2501,
    "ort": "Biel",
    "url": "https://www.spitalzentrum-biel.ch"
  },
  {
    "type": "spital",
    "short_name": "spibu",
    "name": "Spital Bülach",
    "strasse": "Spitalstrasse 24",
    "plz": 8180,
    "ort": "Bülach",
    "url": "https://www.spitalbuelach.ch/"
  },
  {
    "type": "spital",
    "short_name": "spida",
    "name": "Spital Davos",
    "strasse": "Promenade 4",
    "plz": 7270,
    "ort": "Davos Platz",
    "url": "http://www.spitaldavos.ch"
  },
  {
    "type": "spital",
    "short_name": "spiem",
    "name": "Spital Emmental",
    "strasse": "Oberburgstrasse 54",
    "plz": 3400,
    "ort": "Burgdorf",
    "url": "http://www.spital-emmental.ch"
  },
  {
    "type": "spital",
    "short_name": "spifru",
    "name": "Spital Frutigen (fmi)",
    "strasse": "Adelbodenstrasse 27",
    "plz": 3714,
    "ort": "Frutigen",
    "url": "http://www.spitalfmi.ch"
  },
  {
    "type": "spital",
    "short_name": "spigra",
    "name": "Spital Grabs",
    "strasse": "Spitalstrasse 44",
    "plz": 9472,
    "ort": "Grabs",
    "url": "http://www.spitalgrabs.ch"
  },
  {
    "type": "spital",
    "short_name": "spihei",
    "name": "Spital Heiden",
    "strasse": "Werdstrasse 1A",
    "plz": 9410,
    "ort": "Heiden",
    "url": "http://www.spitalverbund.ch"
  },
  {
    "type": "spital",
    "short_name": "spiher",
    "name": "Spital Herisau",
    "strasse": "Spitalstrasse 6",
    "plz": 9100,
    "ort": "Herisau",
    "url": "http://www.spitalverbund.ch"
  },
  {
    "type": "spital",
    "short_name": "spiint",
    "name": "Spital Interlaken (fmi)",
    "strasse": "Weissenaustrasse 27",
    "plz": 3800,
    "ort": "Unterseen",
    "url": "https://www.spitalfmi.ch"
  },
  {
    "type": "spital",
    "short_name": "spila",
    "name": "Spital Lachen",
    "strasse": "Oberdorfstrasse 41",
    "plz": 8853,
    "ort": "Lachen",
    "url": "https://www.spital-lachen.ch"
  },
  {
    "type": "spital",
    "short_name": "spilim",
    "name": "Spital Limmattal",
    "strasse": "Urdorferstrasse 100",
    "plz": 8952,
    "ort": "Schlieren",
    "url": "https://www.spital-limmattal.ch"
  },
  {
    "type": "spital",
    "short_name": "spilin",
    "name": "Spital Linth",
    "strasse": "Gasterstrasse 25",
    "plz": 8730,
    "ort": "Uznach",
    "url": "http://www.spital-linth.ch"
  },
  {
    "type": "spital",
    "short_name": "spiman",
    "name": "Spital Männedorf",
    "strasse": "Asylstrasse 10",
    "plz": 8708,
    "ort": "Männedorf",
    "url": "http://www.spitalmaennedorf.ch"
  },
  {
    "type": "spital",
    "short_name": "spimun",
    "name": "Spital Münsingen",
    "strasse": "Krankenhausweg",
    "plz": 3110,
    "ort": "Münsingen",
    "url": "https://www.spitalmuensingen.ch"
  },
  {
    "type": "spital",
    "short_name": "spimur",
    "name": "Spital Muri",
    "strasse": "Spitalstrasse 144",
    "plz": 5630,
    "ort": "Muri",
    "url": "http://www.spital-muri.ch"
  },
  {
    "type": "spital",
    "short_name": "spiobeng",
    "name": "Spital Oberengadin",
    "strasse": "Via Nouva 3",
    "plz": 7503,
    "ort": "Samaden",
    "url": "http://www.spital-oberengadin.ch"
  },
  {
    "type": "spital",
    "short_name": "spirgobag",
    "name": "Spital Region Oberaargau (SRO)",
    "strasse": "St. Urbanstrasse 67",
    "plz": 4900,
    "ort": "Langenthal",
    "url": "http://www.sro.ch"
  },
  {
    "type": "spital",
    "short_name": "spirgsur",
    "name": "Spital regiunal Surselva",
    "strasse": "Spitalstrasse 6",
    "plz": 7130,
    "ort": "Ilanz",
    "url": "https://www.spitalilanz.ch"
  },
  {
    "type": "spital",
    "short_name": "spisz",
    "name": "Spital Schwyz",
    "strasse": "Waldeggstrasse 10",
    "plz": 6430,
    "ort": "Schwyz",
    "url": "http://www.spital-schwyz.ch"
  },
  {
    "type": "spital",
    "short_name": "spithu",
    "name": "Spital Thun (STS)",
    "strasse": "Krankenhausstrasse 12",
    "plz": 3600,
    "ort": "Thun",
    "url": "http://www.spitalstsag.ch"
  },
  {
    "type": "spital",
    "short_name": "spithus",
    "name": "Spital Thusis",
    "strasse": "Alte Str. 31",
    "plz": 7430,
    "ort": "Thusis",
    "url": "http://www.spitalthusis.ch"
  },
  {
    "type": "spital",
    "short_name": "spitog",
    "name": "Spital Fürstenland Toggenburg (SRFT)",
    "strasse": "Fürstenlandstrasse 32",
    "plz": 9500,
    "ort": "Wil",
    "url": "https://www.srft.ch"
  },
  {
    "type": "spital",
    "short_name": "spitriem",
    "name": "Stadtspital Triemli",
    "strasse": "Birmensdorferstrasse 497",
    "plz": 8063,
    "ort": "Zürich",
    "url": "https://www.stadt-zuerich.ch/triemli"
  },
  {
    "type": "spital",
    "short_name": "spiust",
    "name": "Spital Uster",
    "strasse": "Brunnenstrasse 42",
    "plz": 8610,
    "ort": "Uster",
    "url": "https://www.spitaluster.ch"
  },
  {
    "type": "spital",
    "short_name": "spivs",
    "name": "Spital Wallis",
    "strasse": "Pflanzettastrasse 8",
    "plz": 3930,
    "ort": "Visp",
    "url": "http://www.hopitalduvalais.ch/"
  },
  {
    "type": "spital",
    "short_name": "spiwal",
    "name": "Spital Walenstadt",
    "strasse": "Spitalstrasse 5",
    "plz": 8880,
    "ort": "Walenstadt",
    "url": "https://www.srrws.ch"
  },
  {
    "type": "spital",
    "short_name": "spiwetz",
    "name": "Spital Wetzikon (GZO)",
    "strasse": "Spitalstrasse 66",
    "plz": 8620,
    "ort": "Wetzikon",
    "url": "https://www.gzo.ch"
  },
  {
    "type": "spital",
    "short_name": "spizoll",
    "name": "Spital Zollikerberg",
    "strasse": "Trichtenhauser Str. 20",
    "plz": 8125,
    "ort": "Zollikerberg",
    "url": "https://www.spitalzollikerberg.ch"
  },
  {
    "type": "spital",
    "short_name": "unifr",
    "name": "Universitätsklinikum Freiburg",
    "strasse": "Hugstetter Str. 55",
    "plz": 79106,
    "ort": "Freiburg im Breisgau",
    "url": "https://www.uniklinik-freiburg.de/de.html"
  },
  {
    "type": "spital",
    "short_name": "uniman",
    "name": "Universitätsklinikum Mannheim",
    "strasse": "Theodor-Kutzer-Ufer 1-3",
    "plz": 68167,
    "ort": "Mannheim",
    "url": "http://w2.umm.de/start/"
  },
  {
    "type": "spital",
    "short_name": "usbs",
    "name": "Universitätsspital Basel",
    "strasse": "Spitalstrasse 21",
    "plz": 4031,
    "ort": "Basel",
    "url": "http://www.unispital-basel.ch/"
  },
  {
    "type": "spital",
    "short_name": "usge",
    "name": "Universitätsspital Genf",
    "strasse": "Rue Gabrielle-Perret-Gentil 4",
    "plz": 1205,
    "ort": "Genève",
    "url": "https://www.hug-ge.ch/"
  },
  {
    "type": "spital",
    "short_name": "usz",
    "name": "Universitätsspital Zürich (USZ)",
    "strasse": "Frauenklinikstrasse 10",
    "plz": 8006,
    "ort": "Zürich",
    "url": "https://www.geburtshilfe.usz.ch/"
  }
]